start=new Date('2023-01-21T00:00:00.000Z').valueOf();
sats=[{"TLE_LINE1":"1 53429U 22097AT  23020.93220013  .00001705  00000-0  12517-3 0  9992","ECCENTRICITY":"0.00010700","MEAN_MOTION":"15.08845745","INCLINATION":"53.2150","ARG_OF_PERICENTER":"92.0447","CLASSIFICATION_TYPE":"U","TIME_SYSTEM":"UTC","MEAN_MOTION_DOT":"0.00001705","EPOCH":"2023-01-20T22:22:22.091232","ELEMENT_SET_NO":"999","FILE":"3756249","DECAY_DATE":null,"REV_AT_EPOCH":"2563","BSTAR":"0.00012517000000","PERIAPSIS":"538.988","MEAN_ANOMALY":"268.0668","GP_ID":"223556362","MEAN_MOTION_DDOT":"0.0000000000000","SITE":"AFETR","MEAN_ELEMENT_THEORY":"SGP4","REF_FRAME":"TEME","TLE_LINE2":"2 53429  53.2150 198.7576 0001070  92.0447 268.0668 15.08845745 25637","OBJECT_TYPE":"PAYLOAD","NORAD_CAT_ID":"53429","OBJECT_NAME":"STARLINK-4543","APOAPSIS":"540.468","LAUNCH_DATE":"2022-08-10","RCS_SIZE":"LARGE","PERIOD":"95.437","COUNTRY_CODE":"US","EPHEMERIS_TYPE":"0","RA_OF_ASC_NODE":"198.7576","SEMIMAJOR_AXIS":"6917.863","OBJECT_ID":"2022-097AT","CENTER_NAME":"EARTH"},{"TLE_LINE2":"2 53430  53.2188 199.8978 0001251  85.5831 274.5304 15.08838182 25594","OBJECT_TYPE":"PAYLOAD","NORAD_CAT_ID":"53430","MEAN_ELEMENT_THEORY":"SGP4","REF_FRAME":"TEME","OBJECT_NAME":"STARLINK-4538","APOAPSIS":"540.616","RCS_SIZE":"LARGE","LAUNCH_DATE":"2022-08-10","PERIOD":"95.438","RA_OF_ASC_NODE":"199.8978","OBJECT_ID":"2022-097AU","SEMIMAJOR_AXIS":"6917.886","CENTER_NAME":"EARTH","COUNTRY_CODE":"US","EPHEMERIS_TYPE":"0","TLE_LINE1":"1 53430U 22097AU  23020.65987500 -.00000981  00000-0 -43539-4 0  9990","ECCENTRICITY":"0.00012510","MEAN_MOTION":"15.08838182","MEAN_MOTION_DOT":"-0.00000981","EPOCH":"2023-01-20T15:50:13.200000","INCLINATION":"53.2188","ARG_OF_PERICENTER":"85.5831","CLASSIFICATION_TYPE":"U","TIME_SYSTEM":"UTC","ELEMENT_SET_NO":"999","FILE":"3756249","REV_AT_EPOCH":"2559","DECAY_DATE":null,"BSTAR":"-0.00004353900000","PERIAPSIS":"538.886","MEAN_MOTION_DDOT":"0.0000000000000","SITE":"AFETR","MEAN_ANOMALY":"274.5304","GP_ID":"223556695"},{"TLE_LINE1":"1 53431U 22097AV  23020.46948845 -.00001254  00000-0 -60744-4 0  9990","MEAN_MOTION":"15.08832869","ECCENTRICITY":"0.00011140","MEAN_MOTION_DOT":"-0.00001254","EPOCH":"2023-01-20T11:16:03.802080","CLASSIFICATION_TYPE":"U","ARG_OF_PERICENTER":"90.2512","TIME_SYSTEM":"UTC","INCLINATION":"53.2176","FILE":"3755973","ELEMENT_SET_NO":"999","PERIAPSIS":"538.997","BSTAR":"-0.00006074400000","DECAY_DATE":null,"REV_AT_EPOCH":"2604","MEAN_MOTION_DDOT":"0.0000000000000","SITE":"AFETR","GP_ID":"223550134","MEAN_ANOMALY":"269.8608","NORAD_CAT_ID":"53431","OBJECT_TYPE":"PAYLOAD","TLE_LINE2":"2 53431  53.2176 200.8451 0001114  90.2512 269.8608 15.08832869 26049","REF_FRAME":"TEME","MEAN_ELEMENT_THEORY":"SGP4","APOAPSIS":"540.538","OBJECT_NAME":"STARLINK-4548","RCS_SIZE":"LARGE","LAUNCH_DATE":"2022-08-10","PERIOD":"95.438","RA_OF_ASC_NODE":"200.8451","CENTER_NAME":"EARTH","OBJECT_ID":"2022-097AV","SEMIMAJOR_AXIS":"6917.902","COUNTRY_CODE":"US","EPHEMERIS_TYPE":"0"},{"COUNTRY_CODE":"US","EPHEMERIS_TYPE":"0","RA_OF_ASC_NODE":"201.5381","CENTER_NAME":"EARTH","OBJECT_ID":"2022-097AW","SEMIMAJOR_AXIS":"6917.867","RCS_SIZE":"LARGE","LAUNCH_DATE":"2022-08-10","PERIOD":"95.437","APOAPSIS":"540.522","OBJECT_NAME":"STARLINK-4557","REF_FRAME":"TEME","MEAN_ELEMENT_THEORY":"SGP4","NORAD_CAT_ID":"53432","TLE_LINE2":"2 53432  53.2154 201.5381 0001142  91.1716 268.9407 15.08844349 26013","OBJECT_TYPE":"PAYLOAD","GP_ID":"223549887","MEAN_ANOMALY":"268.9407","MEAN_MOTION_DDOT":"0.0000000000000","SITE":"AFETR","FILE":"3755973","ELEMENT_SET_NO":"999","BSTAR":"0.00000217540000","PERIAPSIS":"538.942","DECAY_DATE":null,"REV_AT_EPOCH":"2601","TIME_SYSTEM":"UTC","CLASSIFICATION_TYPE":"U","ARG_OF_PERICENTER":"91.1716","INCLINATION":"53.2154","MEAN_MOTION_DOT":"-0.00000253","EPOCH":"2023-01-20T05:40:45.865344","TLE_LINE1":"1 53432U 22097AW  23020.23664196 -.00000253  00000-0  21754-5 0  9996","MEAN_MOTION":"15.08844349","ECCENTRICITY":"0.00011420"},{"OBJECT_ID":"2022-097AX","SEMIMAJOR_AXIS":"6917.864","CENTER_NAME":"EARTH","RA_OF_ASC_NODE":"198.6900","EPHEMERIS_TYPE":"0","COUNTRY_CODE":"US","PERIOD":"95.437","RCS_SIZE":"LARGE","LAUNCH_DATE":"2022-08-10","OBJECT_NAME":"STARLINK-4549","APOAPSIS":"540.521","TLE_LINE2":"2 53433  53.2167 198.6900 0001145  94.0169 266.0954 15.08845387 25634","OBJECT_TYPE":"PAYLOAD","NORAD_CAT_ID":"53433","MEAN_ELEMENT_THEORY":"SGP4","REF_FRAME":"TEME","SITE":"AFETR","MEAN_MOTION_DDOT":"0.0000000000000","MEAN_ANOMALY":"266.0954","GP_ID":"223556374","REV_AT_EPOCH":"2563","DECAY_DATE":null,"BSTAR":"0.00010245000000","PERIAPSIS":"538.937","ELEMENT_SET_NO":"999","FILE":"3756256","EPOCH":"2023-01-20T22:06:27.271008","MEAN_MOTION_DOT":"0.00001343","INCLINATION":"53.2167","ARG_OF_PERICENTER":"94.0169","CLASSIFICATION_TYPE":"U","TIME_SYSTEM":"UTC","ECCENTRICITY":"0.00011450","MEAN_MOTION":"15.08845387","TLE_LINE1":"1 53433U 22097AX  23020.92114897  .00001343  00000-0  10245-3 0  9992"},{"NORAD_CAT_ID":"53434","TLE_LINE2":"2 53434  53.2161 203.5981 0002188  65.3267 294.7953 15.08845404 25954","OBJECT_TYPE":"PAYLOAD","REF_FRAME":"TEME","MEAN_ELEMENT_THEORY":"SGP4","APOAPSIS":"541.242","OBJECT_NAME":"STARLINK-4498","LAUNCH_DATE":"2022-08-10","RCS_SIZE":"LARGE","PERIOD":"95.437","RA_OF_ASC_NODE":"203.5981","CENTER_NAME":"EARTH","SEMIMAJOR_AXIS":"6917.864","OBJECT_ID":"2022-097AY","COUNTRY_CODE":"US","EPHEMERIS_TYPE":"0","TLE_LINE1":"1 53434U 22097AY  23019.76927544  .00000356  00000-0  40505-4 0  9990","ECCENTRICITY":"0.00021880","MEAN_MOTION":"15.08845404","MEAN_MOTION_DOT":"0.00000356","EPOCH":"2023-01-19T18:27:45.398016","CLASSIFICATION_TYPE":"U","TIME_SYSTEM":"UTC","ARG_OF_PERICENTER":"65.3267","INCLINATION":"53.2161","FILE":"3755973","ELEMENT_SET_NO":"999","BSTAR":"0.00004050500000","PERIAPSIS":"538.215","DECAY_DATE":null,"REV_AT_EPOCH":"2595","MEAN_MOTION_DDOT":"0.0000000000000","SITE":"AFETR","GP_ID":"223548901","MEAN_ANOMALY":"294.7953"},{"ELEMENT_SET_NO":"999","FILE":"3756256","REV_AT_EPOCH":"2562","DECAY_DATE":null,"BSTAR":"0.00009596900000","PERIAPSIS":"538.932","MEAN_MOTION_DDOT":"0.0000000000000","SITE":"AFETR","MEAN_ANOMALY":"271.4150","GP_ID":"223556703","TLE_LINE1":"1 53435U 22097AZ  23020.83375156  .00001240  00000-0  95969-4 0  9994","ECCENTRICITY":"0.00011440","MEAN_MOTION":"15.08847260","MEAN_MOTION_DOT":"0.00001240","EPOCH":"2023-01-20T20:00:36.134784","INCLINATION":"53.2163","TIME_SYSTEM":"UTC","CLASSIFICATION_TYPE":"U","ARG_OF_PERICENTER":"88.6974","LAUNCH_DATE":"2022-08-10","RCS_SIZE":"LARGE","PERIOD":"95.437","RA_OF_ASC_NODE":"198.8677","OBJECT_ID":"2022-097AZ","SEMIMAJOR_AXIS":"6917.858","CENTER_NAME":"EARTH","COUNTRY_CODE":"US","EPHEMERIS_TYPE":"0","OBJECT_TYPE":"PAYLOAD","TLE_LINE2":"2 53435  53.2163 198.8677 0001144  88.6974 271.4150 15.08847260 25626","NORAD_CAT_ID":"53435","MEAN_ELEMENT_THEORY":"SGP4","REF_FRAME":"TEME","OBJECT_NAME":"STARLINK-4542","APOAPSIS":"540.515"},{"ECCENTRICITY":"0.00011610","MEAN_MOTION":"15.08842324","TLE_LINE1":"1 53436U 22097BA  23020.75918988  .00002025  00000-0  14528-3 0  9995","EPOCH":"2023-01-20T18:13:14.005632","MEAN_MOTION_DOT":"0.00002025","INCLINATION":"53.2164","CLASSIFICATION_TYPE":"U","ARG_OF_PERICENTER":"86.5244","TIME_SYSTEM":"UTC","DECAY_DATE":null,"REV_AT_EPOCH":"2561","BSTAR":"0.00014528000000","PERIAPSIS":"538.935","ELEMENT_SET_NO":"999","FILE":"3756070","SITE":"AFETR","MEAN_MOTION_DDOT":"0.0000000000000","MEAN_ANOMALY":"273.5881","GP_ID":"223552559","OBJECT_TYPE":"PAYLOAD","TLE_LINE2":"2 53436  53.2164 199.1123 0001161  86.5244 273.5881 15.08842324 25613","NORAD_CAT_ID":"53436","MEAN_ELEMENT_THEORY":"SGP4","REF_FRAME":"TEME","OBJECT_NAME":"STARLINK-4527","APOAPSIS":"540.541","PERIOD":"95.437","LAUNCH_DATE":"2022-08-10","RCS_SIZE":"LARGE","SEMIMAJOR_AXIS":"6917.873","OBJECT_ID":"2022-097BA","CENTER_NAME":"EARTH","RA_OF_ASC_NODE":"199.1123","EPHEMERIS_TYPE":"0","COUNTRY_CODE":"US"},{"EPHEMERIS_TYPE":"0","COUNTRY_CODE":"US","OBJECT_ID":"2022-097BC","SEMIMAJOR_AXIS":"6917.837","CENTER_NAME":"EARTH","RA_OF_ASC_NODE":"199.3879","PERIOD":"95.437","LAUNCH_DATE":"2022-08-10","RCS_SIZE":"LARGE","OBJECT_NAME":"STARLINK-4526","APOAPSIS":"540.514","MEAN_ELEMENT_THEORY":"SGP4","REF_FRAME":"TEME","OBJECT_TYPE":"PAYLOAD","TLE_LINE2":"2 53438  53.2154 199.3879 0001173  93.6104 266.5023 15.08854166 25607","NORAD_CAT_ID":"53438","MEAN_ANOMALY":"266.5023","GP_ID":"223556726","SITE":"AFETR","MEAN_MOTION_DDOT":"0.0000000000000","DECAY_DATE":null,"REV_AT_EPOCH":"2560","BSTAR":"0.00036288000000","PERIAPSIS":"538.891","ELEMENT_SET_NO":"999","FILE":"3756251","INCLINATION":"53.2154","ARG_OF_PERICENTER":"93.6104","CLASSIFICATION_TYPE":"U","TIME_SYSTEM":"UTC","EPOCH":"2023-01-20T16:32:32.213472","MEAN_MOTION_DOT":"0.00005494","MEAN_MOTION":"15.08854166","ECCENTRICITY":"0.00011730","TLE_LINE1":"1 53438U 22097BC  23020.68926173  .00005494  00000-0  36288-3 0  9994"},{"OBJECT_TYPE":"PAYLOAD","TLE_LINE2":"2 53439  53.2160 201.4429 0001192  82.4484 277.6644 15.08842917 26029","NORAD_CAT_ID":"53439","MEAN_ELEMENT_THEORY":"SGP4","REF_FRAME":"TEME","OBJECT_NAME":"STARLINK-4519","APOAPSIS":"540.561","PERIOD":"95.437","RCS_SIZE":"LARGE","LAUNCH_DATE":"2022-08-10","SEMIMAJOR_AXIS":"6917.871","OBJECT_ID":"2022-097BD","CENTER_NAME":"EARTH","RA_OF_ASC_NODE":"201.4429","EPHEMERIS_TYPE":"0","COUNTRY_CODE":"US","ECCENTRICITY":"0.00011920","MEAN_MOTION":"15.08842917","TLE_LINE1":"1 53439U 22097BD  23020.22190069  .00000065  00000-0  22165-4 0  9991","EPOCH":"2023-01-20T05:19:32.219616","MEAN_MOTION_DOT":"0.00000065","INCLINATION":"53.2160","ARG_OF_PERICENTER":"82.4484","CLASSIFICATION_TYPE":"U","TIME_SYSTEM":"UTC","DECAY_DATE":null,"REV_AT_EPOCH":"2602","PERIAPSIS":"538.912","BSTAR":"0.00002216500000","ELEMENT_SET_NO":"999","FILE":"3755973","SITE":"AFETR","MEAN_MOTION_DDOT":"0.0000000000000","MEAN_ANOMALY":"277.6644","GP_ID":"223549396"}];
